$$SOE
2461302.500000000, A.D. 2026-Sep-19 00:00:00.0000, -4.465174218646032E+08, -1.281270532973519E+08, 1.564827140886665E+07,
2461309.500000000, A.D. 2026-Sep-26 00:00:00.0000, -4.434195129504877E+08, -1.374280632993850E+08, 1.593929106465324E+07,
2461316.500000000, A.D. 2026-Oct-03 00:00:00.0000, -4.401068116263156E+08, -1.466624771429584E+08, 1.622258960237395E+07,
2461323.500000000, A.D. 2026-Oct-10 00:00:00.0000, -4.365804867326203E+08, -1.558256797874999E+08, 1.649801373803932E+07,
2461330.500000000, A.D. 2026-Oct-17 00:00:00.0000, -4.328417914586968E+08, -1.649130634279964E+08, 1.676541246004179E+07,
2461337.500000000, A.D. 2026-Oct-24 00:00:00.0000, -4.288920640465635E+08, -1.739200283569004E+08, 1.702463707493979E+07,
2461344.500000000, A.D. 2026-Oct-31 00:00:00.0000, -4.247327284357201E+08, -1.828419840273828E+08, 1.727554123343986E+07,
2461351.500000000, A.D. 2026-Nov-07 00:00:00.0000, -4.203652945085145E+08, -1.916743502460981E+08, 1.751798091177322E+07,
2461358.500000000, A.D. 2026-Nov-14 00:00:00.0000, -4.157913577338002E+08, -2.004125576101887E+08, 1.775181440283460E+07,
2461365.500000000, A.D. 2026-Nov-21 00:00:00.0000, -4.110126000186685E+08, -2.090520465089581E+08, 1.797690253922047E+07,
2461372.500000000, A.D. 2026-Nov-28 00:00:00.0000, -4.060307927648502E+08, -2.175882677014673E+08, 1.819310899410409E+07,
2461379.500000000, A.D. 2026-Dec-05 00:00:00.0000, -4.008477985102209E+08, -2.260166851297236E+08, 1.840030027471116E+07,
2461386.500000000, A.D. 2026-Dec-12 00:00:00.0000, -3.954655709898349E+08, -2.343327778583296E+08, 1.859834564801097E+07,
2461393.500000000, A.D. 2026-Dec-19 00:00:00.0000, -3.898861555011988E+08, -2.425320411355765E+08, 1.878711717259875E+07,
2461400.500000000, A.D. 2026-Dec-26 00:00:00.0000, -3.841116897132717E+08, -2.506099874465373E+08, 1.896648977905981E+07,
2461407.500000000, A.D. 2027-Jan-02 00:00:00.0000, -3.781444046415106E+08, -2.585621477525412E+08, 1.913634135803698E+07,
2461414.500000000, A.D. 2027-Jan-09 00:00:00.0000, -3.719866256711938E+08, -2.663840729003309E+08, 1.929655284709780E+07,
2461421.500000000, A.D. 2027-Jan-16 00:00:00.0000, -3.656407735932419E+08, -2.740713351951963E+08, 1.944700831406491E+07,
2461428.500000000, A.D. 2027-Jan-23 00:00:00.0000, -3.591093656061485E+08, -2.816195301806602E+08, 1.958759502948947E+07,
2461435.500000000, A.D. 2027-Jan-30 00:00:00.0000, -3.523950160959440E+08, -2.890242786753528E+08, 1.971820350722189E+07,
2461442.500000000, A.D. 2027-Feb-06 00:00:00.0000, -3.455004367690809E+08, -2.962812287295147E+08, 1.983872750194634E+07,
2461449.500000000, A.D. 2027-Feb-13 00:00:00.0000, -3.384284365975293E+08, -3.033860562830225E+08, 1.994906410553345E+07,
2461456.500000000, A.D. 2027-Feb-20 00:00:00.0000, -3.311819239373911E+08, -3.103344653168619E+08, 2.004911409415315E+07,
2461463.500000000, A.D. 2027-Feb-27 00:00:00.0000, -3.237639094215896E+08, -3.171221907134304E+08, 2.013878213514747E+07,
2461470.500000000, A.D. 2027-Mar-06 00:00:00.0000, -3.161775066049554E+08, -3.237450019055915E+08, 2.021797673371644E+07,
2461477.500000000, A.D. 2027-Mar-13 00:00:00.0000, -3.084259319576131E+08, -3.301987052674531E+08, 2.028661023346013E+07,
2461484.500000000, A.D. 2027-Mar-20 00:00:00.0000, -3.005125053313783E+08, -3.364791460845399E+08, 2.034459890589981E+07,
2461491.500000000, A.D. 2027-Mar-27 00:00:00.0000, -2.924406506931912E+08, -3.425822106560943E+08, 2.039186306538425E+07,
2461498.500000000, A.D. 2027-Apr-03 00:00:00.0000, -2.842138969196282E+08, -3.485038285810945E+08, 2.042832718678625E+07,
2461505.500000000, A.D. 2027-Apr-10 00:00:00.0000, -2.758358785885539E+08, -3.542399752080348E+08, 2.045392002230780E+07,
2461512.500000000, A.D. 2027-Apr-17 00:00:00.0000, -2.673103367426563E+08, -3.597866742648273E+08, 2.046857471429893E+07,
2461519.500000000, A.D. 2027-Apr-24 00:00:00.0000, -2.586411195415679E+08, -3.651400007323005E+08, 2.047222889179787E+07,
2461526.500000000, A.D. 2027-May-01 00:00:00.0000, -2.498321824981076E+08, -3.702960839344662E+08, 2.046482472557142E+07,
2461533.500000000, A.D. 2027-May-08 00:00:00.0000, -2.408875879859220E+08, -3.752511100977755E+08, 2.044630897455366E+07,
2461540.500000000, A.D. 2027-May-15 00:00:00.0000, -2.318115055093311E+08, -3.800013234258192E+08, 2.041663323871817E+07,
2461547.500000000, A.D. 2027-May-22 00:00:00.0000, -2.226082142920576E+08, -3.845430282808338E+08, 2.037575434969182E+07,
2461554.500000000, A.D. 2027-May-29 00:00:00.0000, -2.132821048217537E+08, -3.888725939414368E+08, 2.032363447109340E+07,
2461561.500000000, A.D. 2027-Jun-05 00:00:00.0000, -2.038376784590802E+08, -3.929864588063667E+08, 2.026024108339654E+07,
2461568.500000000, A.D. 2027-Jun-12 00:00:00.0000, -1.942795471121324E+08, -3.968811336128933E+08, 2.018554707278986E+07,
2461575.500000000, A.D. 2027-Jun-19 00:00:00.0000, -1.846124332999033E+08, -4.005532046048391E+08, 2.009953087800895E+07,
2461582.500000000, A.D. 2027-Jun-26 00:00:00.0000, -1.748411703177241E+08, -4.039993369114550E+08, 2.000217664813973E+07,
2461589.500000000, A.D. 2027-Jul-03 00:00:00.0000, -1.649707023648345E+08, -4.072162781290213E+08, 1.989347439993958E+07,
2461596.500000000, A.D. 2027-Jul-10 00:00:00.0000, -1.550060845898063E+08, -4.102008620967532E+08, 1.977342017207028E+07,
2461603.500000000, A.D. 2027-Jul-17 00:00:00.0000, -1.449524830103809E+08, -4.129500129057305E+08, 1.964201616987699E+07,
2461610.500000000, A.D. 2027-Jul-24 00:00:00.0000, -1.348151741441512E+08, -4.154607492025769E+08, 1.949927088135546E+07,
2461617.500000000, A.D. 2027-Jul-31 00:00:00.0000, -1.245995439311300E+08, -4.177301885503930E+08, 1.934519914585268E+07,
2461624.500000000, A.D. 2027-Aug-07 00:00:00.0000, -1.143110861409868E+08, -4.197555506923171E+08, 1.917982228793910E+07,
2461631.500000000, A.D. 2027-Aug-14 00:00:00.0000, -1.039554025574091E+08, -4.215341599668363E+08, 1.900316850647888E+07,
2461638.500000000, A.D. 2027-Aug-21 00:00:00.0000, -9.353820431168076E+07, -4.230634502345871E+08, 1.881527318672937E+07,
2461645.500000000, A.D. 2027-Aug-28 00:00:00.0000, -8.306531092486829E+07, -4.243409711103165E+08, 1.861617891867736E+07,
2461652.500000000, A.D. 2027-Sep-04 00:00:00.0000, -7.254264823109180E+07, -4.253643929943544E+08, 1.840593553407720E+07,
2461659.500000000, A.D. 2027-Sep-11 00:00:00.0000, -6.197624656854986E+07, -4.261315115599495E+08, 1.818460023561296E+07,
2461666.500000000, A.D. 2027-Sep-18 00:00:00.0000, -5.137223909620632E+07, -4.266402523404822E+08, 1.795223775217322E+07,
2461673.500000000, A.D. 2027-Sep-25 00:00:00.0000, -4.073685999814101E+07, -4.268886754870635E+08, 1.770892049212161E+07,
2461680.500000000, A.D. 2027-Oct-02 00:00:00.0000, -3.007644249100489E+07, -4.268749806611985E+08, 1.745472868906000E+07,
2461687.500000000, A.D. 2027-Oct-09 00:00:00.0000, -1.939741660245561E+07, -4.265975120592619E+08, 1.718975053683567E+07,
2461694.500000000, A.D. 2027-Oct-16 00:00:00.0000, -8.706306648344647E+06, -4.260547636159864E+08, 1.691408230287912E+07,
2461701.500000000, A.D. 2027-Oct-23 00:00:00.0000, 1.990271859117897E+06, -4.252453843842309E+08, 1.662782839506766E+07,
2461708.500000000, A.D. 2027-Oct-30 00:00:00.0000, 1.268561625376449E+07, -4.241681834704152E+08, 1.633110139708567E+07,
2461715.500000000, A.D. 2027-Nov-06 00:00:00.0000, 2.337294055136272E+07, -4.228221333843415E+08, 1.602402227041420E+07,
2461722.500000000, A.D. 2027-Nov-13 00:00:00.0000, 3.404537710089005E+07, -4.212063738632958E+08, 1.570672073419860E+07,
2461729.500000000, A.D. 2027-Nov-20 00:00:00.0000, 4.469597896262323E+07, -4.193202183398296E+08, 1.537933537691453E+07,
2461736.500000000, A.D. 2027-Nov-27 00:00:00.0000, 5.531772464081176E+07, -4.171631600755190E+08, 1.504201359287116E+07,
2461743.500000000, A.D. 2027-Dec-04 00:00:00.0000, 6.590352315581340E+07, -4.147348770354257E+08, 1.469491160337660E+07,
2461750.500000000, A.D. 2027-Dec-11 00:00:00.0000, 7.644621891121320E+07, -4.120352364554161E+08, 1.433819453398696E+07,
2461757.500000000, A.D. 2027-Dec-18 00:00:00.0000, 8.693859663492957E+07, -4.090642994279473E+08, 1.397203649460027E+07,
2461764.500000000, A.D. 2027-Dec-25 00:00:00.0000, 9.737338654893088E+07, -4.058223254925837E+08, 1.359662064779273E+07,
2461771.500000000, A.D. 2028-Jan-01 00:00:00.0000, 1.077432698110862E+08, -4.023097771984236E+08, 1.321213926207042E+07,
$$EOE